{
  "type": "FeatureCollection",
  "features": [
    {
      "type": "Feature",
      "id": "cell-a",
      "properties": {"phenotype": "tumour", "score": 0.9},
      "geometry": {
        "type": "Polygon",
        "coordinates": [[[8, 8], [24, 8], [24, 24], [8, 24], [8, 8]]]
      }
    },
    {
      "type": "Feature",
      "id": "cell-b",
      "properties": {"phenotype": "immune", "score": 0.2},
      "geometry": {
        "type": "Polygon",
        "coordinates": [[[32, 32], [48, 32], [48, 48], [32, 48], [32, 32]]]
      }
    }
  ]
}
